COSMOS 1892             
1 18421U 87088A   21216.54054632  .00000648  00000-0  30359-4 0  9990
2 18421  82.4981 224.5359 0016479  73.3255 286.9786 15.17739836847197
SL-14 R/B               
1 18749U 88001B   21216.27811576  .00000073  00000-0  59895-5 0  9996
2 18749  82.5165 330.7544 0019266  22.3205   5.4402 14.83268492793069
COSMOS 1933             
1 18958U 88020A   21216.06587147  .00000420  00000-0  28333-4 0  9998
2 18958  82.5287  87.0964 0011306 180.2062 179.9162 15.03967898797092
SL-3 R/B                
1 19046U 88032B   21216.54089905 -.00000257  00000-0 -14455-4 0  9992
2 19046  97.3880 224.8683 0034891 237.3156 122.4703 15.02979918799007
SL-16 R/B               
1 19120U 88039B   21216.49620701  .00000028  00000-0  35979-4 0  9999
2 19120  71.0159  15.7362 0020847  28.7369 331.4899 14.19223637720259
COSMOS 1953             
1 19210U 88050A   21216.48520436  .00000452  00000-0  28698-4 0  9996
2 19210  82.5161   8.8041 0014209 140.4460 219.7808 15.06324380783830
SL-8 R/B                
1 19257U 88053B   21216.25891066  .00000002  00000-0  93465-5 0  9991
2 19257  74.0505 321.9124 0020678 201.6243 179.4918 14.37526651735329
COSMOS 1975             
1 19573U 88093A   21216.36228689  .00000464  00000-0  30429-4 0  9995
2 19573  82.5212 324.1348 0013672 187.7656 172.3362 15.05225715765578
SL-14 R/B               
1 19574U 88093B   21216.34405292  .00000079  00000-0  66239-5 0  9992
2 19574  82.5332 173.9434 0021593 176.3504 336.6845 14.83379179752076
SL-16 R/B               
1 19650U 88102B   21216.09605847  .00000266  00000-0  15934-3 0  9990
2 19650  70.9996  82.2029 0012901  39.8971 320.3098 14.15806864689287
INTERCOSMOS 24          
1 20261U 89080A   21216.23154491 -.00000134  00000-0 -43730-4 0  9998
2 20261  82.6053 113.1587 1201910 215.2626 136.2936 12.56215504455826
SL-14 R/B               
1 20262U 89080C   21216.37454604  .00000110  00000-0  24303-4 0  9990
2 20262  82.5950 169.4381 1237964  55.6433 315.5599 12.48975418450536
DELTA 2 R/B(1)          
1 20303U 89085B   21216.51327499  .00003248  00000-0  99426-4 0  9991
2 20303  35.6436 291.8340 0090579 254.1217 104.9513 15.29552881731837
DELTA 1 R/B             
1 20323U 89089B   21216.20650017  .00000017  00000-0  13525-4 0  9995
2 20323  97.1220 303.0862 0071967  13.9692 346.3473 14.48411450652617
ARIANE 40 R/B           
1 20443U 90005H   21216.16647299  .00000017  00000-0  20024-4 0  9993
2 20443  98.5260 282.0792 0010328 186.3327 173.7731 14.38137002651436
DELTA 2 R/B(1)          
1 20453U 90008B   21216.47932420  .00002523  00000-0  14013-3 0  9998
2 20453  35.6254 338.8327 0275925 155.7385 205.6602 14.86704046672678
COSMOS 2058             
1 20465U 90010A   21216.49103984  .00000233  00000-0  17328-4 0  9990
2 20465  82.4870 235.8223 0013852 246.2082 113.7689 14.98246802690167
SL-14 R/B               
1 20466U 90010B   21216.51445134  .00000090  00000-0  84206-5 0  9991
2 20466  82.5017  40.1980 0021883  62.6195 297.7242 14.81432256679883
SL-14 R/B               
1 20511U 90018B   21216.39943943  .00000068  00000-0  58878-5 0  9998
2 20511  82.5250 348.5322 0016929 198.8357 214.9809 14.80086520674192
HST                     
1 20580U 90037B   21216.05537894  .00000534  00000-0  21321-4 0  9992
2 20580  28.4698 110.0986 0002636 212.1540 278.7818 15.09696489518216
SL-16 R/B               
1 20625U 90046B   21216.37692860 -.00000269  00000-0 -11459-3 0  9999
2 20625  70.9973 221.4769 0015710 326.5302  33.4826 14.14672621611017
COSMOS 2084             
1 20663U 90055A   21216.26150827  .00000072  00000-0  24946-4 0  9997
2 20663  62.7924 229.6554 0077398  13.5524 346.7623 14.92277741684953
SL-6 R/B(2)             
1 20666U 90055D   21216.24540348  .00000136  00000-0  30013-4 0  9992
2 20666  62.7847 145.0902 0104206  40.1630 320.7105 14.92530904686908
SL-8 R/B                
1 20775U 90078B   21216.54291336  .00003373  00000-0  16221-3 0  9991
2 20775  82.9239 245.5483 0565833 353.6117   5.8054 14.36171633564993
SL-8 R/B                
1 21088U 91006B   21216.34471858  .00000044  00000-0  28605-4 0  9990
2 21088  82.9450 338.2374 0023686  57.4027 320.5224 13.77174855533040
OKEAN-3                 
1 21397U 91039A   21216.22355069  .00000244  00000-0  20905-4 0  9998
2 21397  82.5235 144.2936 0016477 224.7060 135.2834 14.93133811613835
COSMOS 2151             
1 21422U 91042A   21216.52826679  .00000194  00000-0  16502-4 0  9996
2 21422  82.4985 249.6238 0012644 295.7281  64.2633 14.92278942633569
SL-14 R/B               
1 21423U 91042B   21216.33654192  .00000068  00000-0  59720-5 0  9995
2 21423  82.4958 351.0028 0017293 351.6822   8.4101 14.79835914604722
ERS-1                   
1 21574U 91050A   21216.51408511  .00000023  00000-0  22476-4 0  9991
2 21574  98.6505 177.3267 0033699 137.5633 222.8168 14.37807706574474
ARIANE 40 R/B           
1 21610U 91050F   21216.14976539 -.00000001  00000-0  13350-4 0  9999
2 21610  98.4211 286.1825 0004502  99.3574 281.6820 14.40958043577135
INTERCOSMOS 25          
1 21819U 91086A   21216.50444538  .00000266  00000-0  45616-4 0  9990
2 21819  82.5778 238.7508 1517213 111.7045 265.2148 12.05268755294040
SL-8 R/B                
1 21876U 92008B   21216.08244314  .00000083  00000-0  69815-4 0  9995
2 21876  82.9249  75.7334 0035591 140.1557  13.4756 13.75683890478606
SL-8 R/B                
1 21938U 92020B   21216.25717160  .00000041  00000-0  27509-4 0  9999
2 21938  82.9326 320.0881 0028003 303.2091  85.5044 13.75292056470410
COSMOS 2219             
1 22219U 92076A   21216.52580787  .00000055  00000-0  53936-4 0  9994
2 22219  71.0584 284.7985 0020032 245.5131 114.3903 14.13656626481187
SL-16 R/B               
1 22220U 92076B   21216.22074432 -.00000020  00000-0  13952-4 0  9995
2 22220  71.0011 122.6781 0011276 141.1090  21.8271 14.16474398484127
COSMOS 2221             
1 22236U 92080A   21216.04628580  .00000195  00000-0  18463-4 0  9990
2 22236  82.5062  73.7581 0017550  36.3262 323.9143 14.88080256530624
SL-16 R/B               
1 22285U 92093B   21216.48304822 -.00000284  00000-0 -12209-3 0  9998
2 22285  71.0216 286.0082 0005465 321.4679  38.6053 14.15064226475738
COSMOS 2228             
1 22286U 92094A   21216.54263087  .00000228  00000-0  21830-4 0  9991
2 22286  82.5193  30.0136 0021951 145.5496 214.7149 14.88304961525885
SL-16 R/B               
1 22566U 93016B   21216.25093818  .00000279  00000-0  16849-3 0  9997
2 22566  71.0083 139.2452 0010643 346.4878  13.5958 14.14974829464725
COSMOS 2242             
1 22626U 93024A   21216.02342373  .00000211  00000-0  20111-4 0  9995
2 22626  82.5200  58.8067 0019652 146.9380 213.3070 14.88154931530193
SL-16 R/B               
1 22803U 93059B   21216.48951950 -.00000033  00000-0  73257-5 0  9990
2 22803  70.9916 308.8182 0019368 249.8301 110.0740 14.16841391441801
ARIANE 40 R/B           
1 22830U 93061H   21216.19180114 -.00000010  00000-0  13270-4 0  9990
2 22830  98.7104 273.8986 0010842 185.6072 174.4991 14.31487134453871
COSMOS 2278             
1 23087U 94023A   21216.08410443 -.00000031  00000-0  87316-5 0  9999
2 23087  71.0550  85.1713 0006929  63.3635 296.8196 14.13838505407513
SL-16 R/B               
1 23088U 94023B   21216.12501701  .00000079  00000-0  65800-4 0  9997
2 23088  71.0022 354.9448 0004923 306.5057  53.5612 14.14694811408672
SL-16 R/B               
1 23343U 94074B   21216.11589161  .00000016  00000-0  95703-5 0  9999
2 23343  97.9426 270.0134 0005479 258.5292 123.8269 14.76892500439323
SL-16 R/B               
1 23405U 94077B   21216.40347993 -.00000253  00000-0 -10559-3 0  9997
2 23405  70.9829 282.1717 0003908 231.7522 128.3250 14.15243349378769
ERS-2                   
1 23560U 95021A   21216.52505493  .00001078  00000-0  48107-4 0  9998
2 23560  98.5438  73.3353 0003025 182.2204 177.9017 15.24088625405011
ARIANE 40+ R/B          
1 23561U 95021B   21216.35876725  .00000023  00000-0  22570-4 0  9994
2 23561  98.6712 266.6177 0008136 107.0085  21.8237 14.38038280377913
SL-16 R/B               
1 23705U 95058B   21216.17778686 -.00000260  00000-0 -10946-3 0  9999
2 23705  71.0222 102.9979 0011847 168.0796 192.0609 14.15148572330368
SL-16 R/B               
1 24298U 96051B   21216.17437867 -.00000188  00000-0 -75536-4 0  9990
2 24298  70.8276 120.2885 0013461 103.6757 256.5863 14.12429173284639
ORBVIEW 2 (SEASTAR)     
1 24883U 97037A   21216.30731771  .00000004  00000-0  17418-4 0  9991
2 24883  98.6473 334.3348 0001846 356.4855   3.6316 14.33625885267860
SL-16 R/B               
1 25400U 98043G   21216.37426287 -.00000030  00000-0  59668-5 0  9999
2 25400  98.6406 151.5191 0009303 206.2369 153.8341 14.25479897199844
SL-16 R/B               
1 25407U 98045B   21216.15380526 -.00000039  00000-0  44176-5 0  9996
2 25407  71.0121 110.2451 0005622  53.3021 306.8617 14.15843047189494
ISS (ZARYA)             
1 25544U 98067A   21216.68737318  .00001413  00000-0  33915-4 0  9999
2 25544  51.6440 102.8817 0001219 246.7721 206.1474 15.48872926296116
CZ-4B R/B               
1 25732U 99025C   21216.05920323 -.00000019  00000-0  12287-4 0  9995
2 25732  98.8992 252.6148 0038353 113.3823 276.6576 14.17696981150284
OKEAN-O                 
1 25860U 99039A   21216.50329163  .00000065  00000-0  16917-4 0  9991
2 25860  98.1801 247.9018 0001356  67.0994 293.0359 14.76750478186477
SL-16 R/B               
1 25861U 99039B   21216.54587201  .00000041  00000-0  13123-4 0  9995
2 25861  98.2031 232.8447 0014257 271.4718 203.6117 14.78654128188661
DELTA 2 R/B             
1 25876U 99041E   21216.15654713  .00000049  00000-0  50185-4 0  9991
2 25876  51.7635 120.9203 0531717 107.8606 258.1035 14.04595851126629
HELIOS 1B               
1 25977U 99064A   21216.41503567  .00000060  00000-0  14666-4 0  9994
2 25977  98.3195  32.8276 0002566  92.1147 268.0359 14.82571821436306
